{
  "zipcodes": [
    { "zipcode": 6753, "city": "Agerbæk" },
    { "zipcode": 6534, "city": "Agerskov" },
    { "zipcode": 4244, "city": "Agersø" },
    { "zipcode": 2620, "city": "Albertslund" },
    { "zipcode": 3450, "city": "Allerød" },
    { "zipcode": 3770, "city": "Allinge" },
    { "zipcode": 8961, "city": "Allingåbro" },
    { "zipcode": 6051, "city": "Almind" },
    { "zipcode": 8592, "city": "Anholt" },
    { "zipcode": 8643, "city": "Ans By" },
    { "zipcode": 6823, "city": "Ansager" },
    { "zipcode": 9510, "city": "Arden" },
    { "zipcode": 4792, "city": "Askeby" },
    { "zipcode": 4942, "city": "Askø og Lilleø" },
    { "zipcode": 4550, "city": "Asnæs" },
    { "zipcode": 5466, "city": "Asperup" },
    { "zipcode": 5610, "city": "Assens" },
    { "zipcode": 9340, "city": "Asaa" },
    { "zipcode": 6440, "city": "Augustenborg" },
    { "zipcode": 7490, "city": "Aulum" },
    { "zipcode": 8963, "city": "Auning" },
    { "zipcode": 5602, "city": "Avernakø" },
    { "zipcode": 5935, "city": "Bagenkop" },
    { "zipcode": 2880, "city": "Bagsværd" },
    { "zipcode": 8444, "city": "Balle" },
    { "zipcode": 2750, "city": "Ballerup" },
    { "zipcode": 4941, "city": "Bandholm" },
    { "zipcode": 7150, "city": "Barrit" },
    { "zipcode": 6210, "city": "Barsø" },
    { "zipcode": 8330, "city": "Beder" },
    { "zipcode": 7755, "city": "Bedsted Thy" },
    { "zipcode": 6541, "city": "Bevtoft" },
    { "zipcode": 6852, "city": "Billum" },
    { "zipcode": 7190, "city": "Billund" },
    { "zipcode": 9881, "city": "Bindslev" },
    { "zipcode": 3460, "city": "Birkerød" },
    { "zipcode": 5965, "city": "Birkholm" },
    { "zipcode": 8850, "city": "Bjerringbro" },
    { "zipcode": 6091, "city": "Bjert" },
    { "zipcode": 4632, "city": "Bjæverskov" },
    { "zipcode": 5603, "city": "Bjørnø" },
    { "zipcode": 9492, "city": "Blokhus" },
    { "zipcode": 5491, "city": "Blommenslyst" },
    { "zipcode": 6857, "city": "Blåvand" },
    { "zipcode": 4242, "city": "Boeslunde" },
    { "zipcode": 5400, "city": "Bogense" },
    { "zipcode": 4793, "city": "Bogø By" },
    { "zipcode": 6392, "city": "Bolderslev" },
    { "zipcode": 7441, "city": "Bording" },
    { "zipcode": 4791, "city": "Borre" },
    { "zipcode": 4140, "city": "Borup" },
    { "zipcode": 8220, "city": "Brabrand" },
    { "zipcode": 6740, "city": "Bramming" },
    { "zipcode": 7330, "city": "Brande" },
    { "zipcode": 6535, "city": "Branderup J" },
    { "zipcode": 6261, "city": "Bredebro" },
    { "zipcode": 7182, "city": "Bredsten" },
    { "zipcode": 5464, "city": "Brenderup Fyn" },
    { "zipcode": 6310, "city": "Broager" },
    { "zipcode": 5672, "city": "Broby" },
    { "zipcode": 9460, "city": "Brovst" },
    { "zipcode": 8654, "city": "Bryrup" },
    { "zipcode": 8740, "city": "Brædstrup" },
    { "zipcode": 2605, "city": "Brøndby" },
    { "zipcode": 2660, "city": "Brøndby Strand" },
    { "zipcode": 9700, "city": "Brønderslev" },
    { "zipcode": 6650, "city": "Brørup" },
    { "zipcode": 6372, "city": "Bylderup-Bov" },
    { "zipcode": 6622, "city": "Bække" },
    { "zipcode": 7660, "city": "Bækmarksbro" },
    { "zipcode": 9574, "city": "Bælum" },
    { "zipcode": 7080, "city": "Børkop" },
    { "zipcode": 7650, "city": "Bøvlingbjerg" },
    { "zipcode": 2920, "city": "Charlottenlund" },
    { "zipcode": 6070, "city": "Christiansfeld" },
    { "zipcode": 5380, "city": "Dalby" },
    { "zipcode": 4261, "city": "Dalmose" },
    { "zipcode": 4983, "city": "Dannemare" },
    { "zipcode": 8721, "city": "Daugård" },
    { "zipcode": 4293, "city": "Dianalund" },
    { "zipcode": 2791, "city": "Dragør" },
    { "zipcode": 9330, "city": "Dronninglund" },
    { "zipcode": 3120, "city": "Dronningmølle" },
    { "zipcode": 9352, "city": "Dybvad" },
    { "zipcode": 2870, "city": "Dyssegård" },
    { "zipcode": 5631, "city": "Ebberup" },
    { "zipcode": 8400, "city": "Ebeltoft" },
    { "zipcode": 6320, "city": "Egernsund" },
    { "zipcode": 6040, "city": "Egtved" },
    { "zipcode": 8250, "city": "Egå" },
    { "zipcode": 5592, "city": "Ejby" },
    { "zipcode": 7361, "city": "Ejstrupholm" },
    { "zipcode": 8789, "city": "Endelave" },
    { "zipcode": 7442, "city": "Engesvang" },
    { "zipcode": 4895, "city": "Errindlev" },
    { "zipcode": 7950, "city": "Erslev" },
    { "zipcode": 6700, "city": "Esbjerg" },
    { "zipcode": 6715, "city": "Esbjerg N" },
    { "zipcode": 6710, "city": "Esbjerg V" },
    { "zipcode": 6705, "city": "Esbjerg Ø" },
    { "zipcode": 4593, "city": "Eskebjerg" },
    { "zipcode": 4863, "city": "Eskilstrup" },
    { "zipcode": 3060, "city": "Espergærde" },
    { "zipcode": 6720, "city": "Fanø" },
    { "zipcode": 9640, "city": "Farsø" },
    { "zipcode": 3520, "city": "Farum" },
    { "zipcode": 4640, "city": "Faxe" },
    { "zipcode": 4654, "city": "Faxe Ladeplads" },
    { "zipcode": 4944, "city": "Fejø" },
    { "zipcode": 4945, "city": "Femø" },
    { "zipcode": 5863, "city": "Ferritslev Fyn" },
    { "zipcode": 4173, "city": "Fjenneslev" },
    { "zipcode": 9690, "city": "Fjerritslev" },
    { "zipcode": 8762, "city": "Flemming" },
    { "zipcode": 3480, "city": "Fredensborg" },
    { "zipcode": 7000, "city": "Fredericia" },
    { "zipcode": 9900, "city": "Frederikshavn" },
    { "zipcode": 3600, "city": "Frederikssund" },
    { "zipcode": 3300, "city": "Frederiksværk" },
    { "zipcode": 5871, "city": "Frørup" },
    { "zipcode": 7741, "city": "Frøstrup" },
    { "zipcode": 4250, "city": "Fuglebjerg" },
    { "zipcode": 7884, "city": "Fur" },
    { "zipcode": 4591, "city": "Føllenslev" },
    { "zipcode": 6683, "city": "Føvling" },
    { "zipcode": 5600, "city": "Faaborg" },
    { "zipcode": 4540, "city": "Fårevejle" },
    { "zipcode": 8990, "city": "Fårup" },
    { "zipcode": 8882, "city": "Fårvang" },
    { "zipcode": 7321, "city": "Gadbjerg" },
    { "zipcode": 4621, "city": "Gadstrup" },
    { "zipcode": 8464, "city": "Galten" },
    { "zipcode": 9362, "city": "Gandrup" },
    { "zipcode": 4874, "city": "Gedser" },
    { "zipcode": 9631, "city": "Gedsted" },
    { "zipcode": 8751, "city": "Gedved" },
    { "zipcode": 5591, "city": "Gelsted" },
    { "zipcode": 2820, "city": "Gentofte" },
    { "zipcode": 6621, "city": "Gesten" },
    { "zipcode": 3250, "city": "Gilleleje" },
    { "zipcode": 5854, "city": "Gislev" },
    { "zipcode": 4532, "city": "Gislinge" },
    { "zipcode": 9260, "city": "Gistrup" },
    { "zipcode": 7323, "city": "Give" },
    { "zipcode": 8983, "city": "Gjerlev J" },
    { "zipcode": 8883, "city": "Gjern" },
    { "zipcode": 5620, "city": "Glamsbjerg" },
    { "zipcode": 6752, "city": "Glejbjerg" },
    { "zipcode": 8585, "city": "Glesborg" },
    { "zipcode": 2600, "city": "Glostrup" },
    { "zipcode": 4171, "city": "Glumsø" },
    { "zipcode": 6510, "city": "Gram" },
    { "zipcode": 6771, "city": "Gredstedbro" },
    { "zipcode": 8500, "city": "Grenaa" },
    { "zipcode": 2670, "city": "Greve" },
    { "zipcode": 4571, "city": "Grevinge" },
    { "zipcode": 7200, "city": "Grindsted" },
    { "zipcode": 3230, "city": "Græsted" },
    { "zipcode": 6300, "city": "Gråsten" },
    { "zipcode": 5892, "city": "Gudbjerg Sydfyn" },
    { "zipcode": 3760, "city": "Gudhjem" },
    { "zipcode": 5884, "city": "Gudme" },
    { "zipcode": 4862, "city": "Guldborg" },
    { "zipcode": 6690, "city": "Gørding" },
    { "zipcode": 4281, "city": "Gørlev" },
    { "zipcode": 3330, "city": "Gørløse" },
    { "zipcode": 6100, "city": "Haderslev" },
    { "zipcode": 7540, "city": "Haderup" },
    { "zipcode": 8370, "city": "Hadsten" },
    { "zipcode": 9560, "city": "Hadsund" },
    { "zipcode": 9370, "city": "Hals" },
    { "zipcode": 8450, "city": "Hammel" },
    { "zipcode": 7362, "city": "Hampen" },
    { "zipcode": 7730, "city": "Hanstholm" },
    { "zipcode": 7673, "city": "Harboøre" },
    { "zipcode": 8462, "city": "Harlev J" },
    { "zipcode": 5463, "city": "Harndrup" },
    { "zipcode": 4912, "city": "Harpelunde" },
    { "zipcode": 3790, "city": "Hasle" },
    { "zipcode": 4690, "city": "Haslev" },
    { "zipcode": 8361, "city": "Hasselager" },
    { "zipcode": 4622, "city": "Havdrup" },
    { "zipcode": 8970, "city": "Havndal" },
    { "zipcode": 2640, "city": "Hedehusene" },
    { "zipcode": 8722, "city": "Hedensted" },
    { "zipcode": 6094, "city": "Hejls" },
    { "zipcode": 7250, "city": "Hejnsvig" },
    { "zipcode": 3150, "city": "Hellebæk" },
    { "zipcode": 2900, "city": "Hellerup" },
    { "zipcode": 3200, "city": "Helsinge" },
    { "zipcode": 3000, "city": "Helsingør" },
    { "zipcode": 6893, "city": "Hemmet" },
    { "zipcode": 6854, "city": "Henne" },
    { "zipcode": 4681, "city": "Herfølge" },
    { "zipcode": 2730, "city": "Herlev" },
    { "zipcode": 4160, "city": "Herlufmagle" },
    { "zipcode": 7400, "city": "Herning" },
    { "zipcode": 5874, "city": "Hesselager" },
    { "zipcode": 3400, "city": "Hillerød" },
    { "zipcode": 8382, "city": "Hinnerup" },
    { "zipcode": 9850, "city": "Hirtshals" },
    { "zipcode": 9320, "city": "Hjallerup" },
    { "zipcode": 7560, "city": "Hjerm" },
    { "zipcode": 8530, "city": "Hjortshøj" },
    { "zipcode": 9800, "city": "Hjørring" },
    { "zipcode": 9500, "city": "Hobro" },
    { "zipcode": 4300, "city": "Holbæk" },
    { "zipcode": 4960, "city": "Holeby" },
    { "zipcode": 4684, "city": "Holmegaard" },
    { "zipcode": 7500, "city": "Holstebro" },
    { "zipcode": 6670, "city": "Holsted" },
    { "zipcode": 2840, "city": "Holte" },
    { "zipcode": 4871, "city": "Horbelev" },
    { "zipcode": 3100, "city": "Hornbæk" },
    { "zipcode": 8543, "city": "Hornslet" },
    { "zipcode": 8783, "city": "Hornsyld" },
    { "zipcode": 8700, "city": "Horsens" },
    { "zipcode": 4913, "city": "Horslunde" },
    { "zipcode": 6682, "city": "Hovborg" },
    { "zipcode": 8732, "city": "Hovedgård" },
    { "zipcode": 5932, "city": "Humble" },
    { "zipcode": 3050, "city": "Humlebæk" },
    { "zipcode": 3390, "city": "Hundested" },
    { "zipcode": 8350, "city": "Hundslund" },
    { "zipcode": 7760, "city": "Hurup Thy" },
    { "zipcode": 4330, "city": "Hvalsø" },
    { "zipcode": 6960, "city": "Hvide Sande" },
    { "zipcode": 2650, "city": "Hvidovre" },
    { "zipcode": 8270, "city": "Højbjerg" },
    { "zipcode": 4573, "city": "Højby" },
    { "zipcode": 6280, "city": "Højer" },
    { "zipcode": 7840, "city": "Højslev" },
    { "zipcode": 4270, "city": "Høng" },
    { "zipcode": 8362, "city": "Hørning" },
    { "zipcode": 2970, "city": "Hørsholm" },
    { "zipcode": 4534, "city": "Hørve" },
    { "zipcode": 5683, "city": "Haarby" },
    { "zipcode": 4652, "city": "Hårlev" },
    { "zipcode": 4872, "city": "Idestrup" },
    { "zipcode": 7430, "city": "Ikast" },
    { "zipcode": 2635, "city": "Ishøj" },
    { "zipcode": 6851, "city": "Janderup Vestj" },
    { "zipcode": 7300, "city": "Jelling" },
    { "zipcode": 9740, "city": "Jerslev J" },
    { "zipcode": 4490, "city": "Jerslev Sjælland" },
    { "zipcode": 9981, "city": "Jerup" },
    { "zipcode": 6064, "city": "Jordrup" },
    { "zipcode": 7130, "city": "Juelsminde" },
    { "zipcode": 4450, "city": "Jyderup" },
    { "zipcode": 4040, "city": "Jyllinge" },
    { "zipcode": 4174, "city": "Jystrup Midtsj" },
    { "zipcode": 3630, "city": "Jægerspris" },
    { "zipcode": 4400, "city": "Kalundborg" },
    { "zipcode": 4771, "city": "Kalvehave" },
    { "zipcode": 7960, "city": "Karby" },
    { "zipcode": 4653, "city": "Karise" },
    { "zipcode": 2690, "city": "Karlslunde" },
    { "zipcode": 4736, "city": "Karrebæksminde" },
    { "zipcode": 7470, "city": "Karup J" },
    { "zipcode": 2770, "city": "Kastrup" },
    { "zipcode": 5300, "city": "Kerteminde" },
    { "zipcode": 4892, "city": "Kettinge" },
    { "zipcode": 6933, "city": "Kibæk" },
    { "zipcode": 4360, "city": "Kirke Eskilstrup" },
    { "zipcode": 4070, "city": "Kirke Hyllinge" },
    { "zipcode": 4060, "city": "Kirke Såby" },
    { "zipcode": 8620, "city": "Kjellerup" },
    { "zipcode": 2930, "city": "Klampenborg" },
    { "zipcode": 9270, "city": "Klarup" },
    { "zipcode": 3782, "city": "Klemensker" },
    { "zipcode": 4672, "city": "Klippinge" },
    { "zipcode": 8765, "city": "Klovborg" },
    { "zipcode": 8420, "city": "Knebel" },
    { "zipcode": 2980, "city": "Kokkedal" },
    { "zipcode": 6000, "city": "Kolding" },
    { "zipcode": 8560, "city": "Kolind" },
    { "zipcode": 2800, "city": "Kongens Lyngby" },
    { "zipcode": 9293, "city": "Kongerslev" },
    { "zipcode": 4220, "city": "Korsør" },
    { "zipcode": 6340, "city": "Kruså" },
    { "zipcode": 3490, "city": "Kvistgård" },
    { "zipcode": 5772, "city": "Kværndrup" },
    { "zipcode": 4600, "city": "Køge" },
    { "zipcode": 4772, "city": "Langebæk" },
    { "zipcode": 5550, "city": "Langeskov" },
    { "zipcode": 8870, "city": "Langå" },
    { "zipcode": 4320, "city": "Lejre" },
    { "zipcode": 6940, "city": "Lem St" },
    { "zipcode": 8632, "city": "Lemming" },
    { "zipcode": 7620, "city": "Lemvig" },
    { "zipcode": 4623, "city": "Lille Skensved" },
    { "zipcode": 6660, "city": "Lintrup" },
    { "zipcode": 3360, "city": "Liseleje" },
    { "zipcode": 4750, "city": "Lundby" },
    { "zipcode": 6640, "city": "Lunderskov" },
    { "zipcode": 3540, "city": "Lynge" },
    { "zipcode": 8520, "city": "Lystrup" },
    { "zipcode": 5601, "city": "Lyø" },
    { "zipcode": 9940, "city": "Læsø" },
    { "zipcode": 8831, "city": "Løgstrup" },
    { "zipcode": 9670, "city": "Løgstør" },
    { "zipcode": 6240, "city": "Løgumkloster" },
    { "zipcode": 9480, "city": "Løkken" },
    { "zipcode": 8723, "city": "Løsning" },
    { "zipcode": 8670, "city": "Låsby" },
    { "zipcode": 8340, "city": "Malling" },
    { "zipcode": 9550, "city": "Mariager" },
    { "zipcode": 4930, "city": "Maribo" },
    { "zipcode": 5290, "city": "Marslev" },
    { "zipcode": 5960, "city": "Marstal" },
    { "zipcode": 5390, "city": "Martofte" },
    { "zipcode": 3370, "city": "Melby" },
    { "zipcode": 4735, "city": "Mern" },
    { "zipcode": 5370, "city": "Mesinge" },
    { "zipcode": 5500, "city": "Middelfart" },
    { "zipcode": 5642, "city": "Millinge" },
    { "zipcode": 5462, "city": "Morud" },
    { "zipcode": 4190, "city": "Munke Bjergby" },
    { "zipcode": 5330, "city": "Munkebo" },
    { "zipcode": 9632, "city": "Møldrup" },
    { "zipcode": 8544, "city": "Mørke" },
    { "zipcode": 4440, "city": "Mørkøv" },
    { "zipcode": 2760, "city": "Måløv" },
    { "zipcode": 8320, "city": "Mårslet" },
    { "zipcode": 4900, "city": "Nakskov" },
    { "zipcode": 3730, "city": "Nexø" },
    { "zipcode": 9240, "city": "Nibe" },
    { "zipcode": 8581, "city": "Nimtofte" },
    { "zipcode": 2990, "city": "Nivå" },
    { "zipcode": 6430, "city": "Nordborg" },
    { "zipcode": 5800, "city": "Nyborg" },
    { "zipcode": 4800, "city": "Nykøbing F" },
    { "zipcode": 7900, "city": "Nykøbing M" },
    { "zipcode": 4500, "city": "Nykøbing Sj" },
    { "zipcode": 4296, "city": "Nyrup" },
    { "zipcode": 4880, "city": "Nysted" },
    { "zipcode": 2850, "city": "Nærum" },
    { "zipcode": 4700, "city": "Næstved" },
    { "zipcode": 9610, "city": "Nørager" },
    { "zipcode": 4840, "city": "Nørre Alslev" },
    { "zipcode": 4572, "city": "Nørre Asmindrup" },
    { "zipcode": 6830, "city": "Nørre Nebel" },
    { "zipcode": 8766, "city": "Nørre Snede" },
    { "zipcode": 5580, "city": "Nørre Aaby" },
    { "zipcode": 4951, "city": "Nørreballe" },
    { "zipcode": 9400, "city": "Nørresundby" },
    { "zipcode": 8300, "city": "Odder" },
    { "zipcode": 5000, "city": "Odense C" },
    { "zipcode": 5230, "city": "Odense M" },
    { "zipcode": 5270, "city": "Odense N" },
    { "zipcode": 5210, "city": "Odense NV" },
    { "zipcode": 5240, "city": "Odense NØ" },
    { "zipcode": 5260, "city": "Odense S" },
    { "zipcode": 5250, "city": "Odense SV" },
    { "zipcode": 5220, "city": "Odense SØ" },
    { "zipcode": 5200, "city": "Odense V" },
    { "zipcode": 6840, "city": "Oksbøl" },
    { "zipcode": 4245, "city": "Omø" },
    { "zipcode": 4305, "city": "Orø" },
    { "zipcode": 5450, "city": "Otterup" },
    { "zipcode": 5883, "city": "Oure" },
    { "zipcode": 6855, "city": "Outrup" },
    { "zipcode": 6330, "city": "Padborg" },
    { "zipcode": 9490, "city": "Pandrup" },
    { "zipcode": 4720, "city": "Præstø" },
    { "zipcode": 7183, "city": "Randbøl" },
    { "zipcode": 8900, "city": "Randers C" },
    { "zipcode": 8920, "city": "Randers NV" },
    { "zipcode": 8930, "city": "Randers NØ" },
    { "zipcode": 8940, "city": "Randers SV" },
    { "zipcode": 8960, "city": "Randers SØ" },
    { "zipcode": 9681, "city": "Ranum" },
    { "zipcode": 8763, "city": "Rask Mølle" },
    { "zipcode": 7970, "city": "Redsted M" },
    { "zipcode": 4420, "city": "Regstrup" },
    { "zipcode": 6760, "city": "Ribe" },
    { "zipcode": 5750, "city": "Ringe" },
    { "zipcode": 6950, "city": "Ringkøbing" },
    { "zipcode": 4100, "city": "Ringsted" },
    { "zipcode": 8240, "city": "Risskov" },
    { "zipcode": 4000, "city": "Roskilde" },
    { "zipcode": 7870, "city": "Roslev" },
    { "zipcode": 4243, "city": "Rude" },
    { "zipcode": 5900, "city": "Rudkøbing" },
    { "zipcode": 4291, "city": "Ruds Vedby" },
    { "zipcode": 2960, "city": "Rungsted Kyst" },
    { "zipcode": 8680, "city": "Ry" },
    { "zipcode": 5350, "city": "Rynkeby" },
    { "zipcode": 8550, "city": "Ryomgård" },
    { "zipcode": 5856, "city": "Ryslinge" },
    { "zipcode": 4970, "city": "Rødby" },
    { "zipcode": 6630, "city": "Rødding" },
    { "zipcode": 6230, "city": "Rødekro" },
    { "zipcode": 8840, "city": "Rødkærsbro" },
    { "zipcode": 2610, "city": "Rødovre" },
    { "zipcode": 4673, "city": "Rødvig Stevns" },
    { "zipcode": 6792, "city": "Rømø" },
    { "zipcode": 8410, "city": "Rønde" },
    { "zipcode": 3700, "city": "Rønne" },
    { "zipcode": 4683, "city": "Rønnede" },
    { "zipcode": 4581, "city": "Rørvig" },
    { "zipcode": 8471, "city": "Sabro" },
    { "zipcode": 4990, "city": "Sakskøbing" },
    { "zipcode": 9493, "city": "Saltum" },
    { "zipcode": 8305, "city": "Samsø" },
    { "zipcode": 4262, "city": "Sandved" },
    { "zipcode": 4592, "city": "Sejerø" },
    { "zipcode": 8600, "city": "Silkeborg" },
    { "zipcode": 9870, "city": "Sindal" },
    { "zipcode": 4583, "city": "Sjællands Odde" },
    { "zipcode": 6093, "city": "Sjølund" },
    { "zipcode": 9990, "city": "Skagen" },
    { "zipcode": 8832, "city": "Skals" },
    { "zipcode": 5485, "city": "Skamby" },
    { "zipcode": 8660, "city": "Skanderborg" },
    { "zipcode": 4050, "city": "Skibby" },
    { "zipcode": 7800, "city": "Skive" },
    { "zipcode": 6900, "city": "Skjern" },
    { "zipcode": 2942, "city": "Skodsborg" },
    { "zipcode": 2740, "city": "Skovlunde" },
    { "zipcode": 4230, "city": "Skælskør" },
    { "zipcode": 6780, "city": "Skærbæk" },
    { "zipcode": 3320, "city": "Skævinge" },
    { "zipcode": 8541, "city": "Skødstrup" },
    { "zipcode": 9520, "city": "Skørping" },
    { "zipcode": 5881, "city": "Skårup Fyn" },
    { "zipcode": 4200, "city": "Slagelse" },
    { "zipcode": 3550, "city": "Slangerup" },
    { "zipcode": 2765, "city": "Smørum" },
    { "zipcode": 7752, "city": "Snedsted" },
    { "zipcode": 3070, "city": "Snekkersten" },
    { "zipcode": 4460, "city": "Snertinge" },
    { "zipcode": 8355, "city": "Solbjerg" },
    { "zipcode": 2680, "city": "Solrød Strand" },
    { "zipcode": 6560, "city": "Sommersted" },
    { "zipcode": 8641, "city": "Sorring" },
    { "zipcode": 4180, "city": "Sorø" },
    { "zipcode": 8981, "city": "Spentrup" },
    { "zipcode": 6971, "city": "Spjald" },
    { "zipcode": 8472, "city": "Sporup" },
    { "zipcode": 7860, "city": "Spøttrup" },
    { "zipcode": 7270, "city": "Stakroge" },
    { "zipcode": 4780, "city": "Stege" },
    { "zipcode": 8781, "city": "Stenderup" },
    { "zipcode": 4295, "city": "Stenlille" },
    { "zipcode": 3660, "city": "Stenløse" },
    { "zipcode": 5771, "city": "Stenstrup" },
    { "zipcode": 4773, "city": "Stensved" },
    { "zipcode": 7850, "city": "Stoholm Jyll" },
    { "zipcode": 4952, "city": "Stokkemarke" },
    { "zipcode": 4480, "city": "Store Fuglede" },
    { "zipcode": 4660, "city": "Store Heddinge" },
    { "zipcode": 4370, "city": "Store Merløse" },
    { "zipcode": 9280, "city": "Storvorde" },
    { "zipcode": 7140, "city": "Stouby" },
    { "zipcode": 9970, "city": "Strandby" },
    { "zipcode": 7600, "city": "Struer" },
    { "zipcode": 5943, "city": "Strynø" },
    { "zipcode": 4671, "city": "Strøby" },
    { "zipcode": 4850, "city": "Stubbekøbing" },
    { "zipcode": 9530, "city": "Støvring" },
    { "zipcode": 9541, "city": "Suldrup" },
    { "zipcode": 9381, "city": "Sulsted" },
    { "zipcode": 7451, "city": "Sunds" },
    { "zipcode": 3740, "city": "Svaneke" },
    { "zipcode": 4470, "city": "Svebølle" },
    { "zipcode": 5700, "city": "Svendborg" },
    { "zipcode": 9230, "city": "Svenstrup J" },
    { "zipcode": 4520, "city": "Svinninge" },
    { "zipcode": 6470, "city": "Sydals" },
    { "zipcode": 9300, "city": "Sæby" },
    { "zipcode": 2860, "city": "Søborg" },
    { "zipcode": 5985, "city": "Søby Ærø" },
    { "zipcode": 4920, "city": "Søllested" },
    { "zipcode": 7280, "city": "Sønder Felding" },
    { "zipcode": 7260, "city": "Sønder Omme" },
    { "zipcode": 6092, "city": "Sønder Stenderup" },
    { "zipcode": 6400, "city": "Sønderborg" },
    { "zipcode": 5471, "city": "Søndersø" },
    { "zipcode": 7550, "city": "Sørvad" },
    { "zipcode": 4733, "city": "Tappernøje" },
    { "zipcode": 6880, "city": "Tarm" },
    { "zipcode": 9575, "city": "Terndrup" },
    { "zipcode": 8653, "city": "Them" },
    { "zipcode": 7700, "city": "Thisted" },
    { "zipcode": 8881, "city": "Thorsø" },
    { "zipcode": 7680, "city": "Thyborøn" },
    { "zipcode": 7790, "city": "Thyholm" },
    { "zipcode": 3080, "city": "Tikøb" },
    { "zipcode": 8381, "city": "Tilst" },
    { "zipcode": 6980, "city": "Tim" },
    { "zipcode": 6360, "city": "Tinglev" },
    { "zipcode": 6862, "city": "Tistrup" },
    { "zipcode": 3220, "city": "Tisvildeleje" },
    { "zipcode": 8830, "city": "Tjele" },
    { "zipcode": 6731, "city": "Tjæreborg" },
    { "zipcode": 6520, "city": "Toftlund" },
    { "zipcode": 5690, "city": "Tommerup" },
    { "zipcode": 4891, "city": "Toreby L" },
    { "zipcode": 4943, "city": "Torrig L" },
    { "zipcode": 8310, "city": "Tranbjerg J" },
    { "zipcode": 5953, "city": "Tranekær" },
    { "zipcode": 8380, "city": "Trige" },
    { "zipcode": 8570, "city": "Trustrup" },
    { "zipcode": 4030, "city": "Tune" },
    { "zipcode": 8799, "city": "Tunø" },
    { "zipcode": 4682, "city": "Tureby" },
    { "zipcode": 9382, "city": "Tylstrup" },
    { "zipcode": 4340, "city": "Tølløse" },
    { "zipcode": 6270, "city": "Tønder" },
    { "zipcode": 7160, "city": "Tørring" },
    { "zipcode": 9830, "city": "Tårs" },
    { "zipcode": 2630, "city": "Taastrup" },
    { "zipcode": 4350, "city": "Ugerløse" },
    { "zipcode": 7171, "city": "Uldum" },
    { "zipcode": 6990, "city": "Ulfborg" },
    { "zipcode": 5540, "city": "Ullerslev" },
    { "zipcode": 8860, "city": "Ulstrup" },
    { "zipcode": 9430, "city": "Vadum" },
    { "zipcode": 2625, "city": "Vallensbæk" },
    { "zipcode": 2665, "city": "Vallensbæk Strand" },
    { "zipcode": 6580, "city": "Vamdrup" },
    { "zipcode": 7184, "city": "Vandel" },
    { "zipcode": 6800, "city": "Varde" },
    { "zipcode": 2950, "city": "Vedbæk" },
    { "zipcode": 5474, "city": "Veflinge" },
    { "zipcode": 3210, "city": "Vejby" },
    { "zipcode": 6600, "city": "Vejen" },
    { "zipcode": 6853, "city": "Vejers Strand" },
    { "zipcode": 7100, "city": "Vejle" },
    { "zipcode": 7120, "city": "Vejle Øst" },
    { "zipcode": 5882, "city": "Vejstrup" },
    { "zipcode": 3670, "city": "Veksø Sjælland" },
    { "zipcode": 7570, "city": "Vemb" },
    { "zipcode": 4241, "city": "Vemmelev" },
    { "zipcode": 7742, "city": "Vesløs" },
    { "zipcode": 9380, "city": "Vestbjerg" },
    { "zipcode": 5762, "city": "Vester Skerninge" },
    { "zipcode": 4953, "city": "Vesterborg" },
    { "zipcode": 7770, "city": "Vestervig" },
    { "zipcode": 8800, "city": "Viborg" },
    { "zipcode": 8260, "city": "Viby J" },
    { "zipcode": 4130, "city": "Viby Sjælland" },
    { "zipcode": 6920, "city": "Videbæk" },
    { "zipcode": 4560, "city": "Vig" },
    { "zipcode": 7480, "city": "Vildbjerg" },
    { "zipcode": 7980, "city": "Vils" },
    { "zipcode": 7830, "city": "Vinderup" },
    { "zipcode": 4390, "city": "Vipperød" },
    { "zipcode": 2830, "city": "Virum" },
    { "zipcode": 5492, "city": "Vissenbjerg" },
    { "zipcode": 6052, "city": "Viuf" },
    { "zipcode": 9310, "city": "Vodskov" },
    { "zipcode": 6500, "city": "Vojens" },
    { "zipcode": 7173, "city": "Vonge" },
    { "zipcode": 6623, "city": "Vorbasse" },
    { "zipcode": 4760, "city": "Vordingborg" },
    { "zipcode": 9760, "city": "Vrå" },
    { "zipcode": 4873, "city": "Væggerløse" },
    { "zipcode": 3500, "city": "Værløse" },
    { "zipcode": 5970, "city": "Ærøskøbing" },
    { "zipcode": 6870, "city": "Ølgod" },
    { "zipcode": 3310, "city": "Ølsted" },
    { "zipcode": 3650, "city": "Ølstykke" },
    { "zipcode": 5853, "city": "Ørbæk" },
    { "zipcode": 6973, "city": "Ørnhøj" },
    { "zipcode": 8950, "city": "Ørsted" },
    { "zipcode": 8586, "city": "Ørum Djurs" },
    { "zipcode": 8752, "city": "Østbirk" },
    { "zipcode": 7990, "city": "Øster Assels" },
    { "zipcode": 4894, "city": "Øster Ulslev" },
    { "zipcode": 3751, "city": "Østermarie" },
    { "zipcode": 9750, "city": "Østervrå" },
    { "zipcode": 6200, "city": "Aabenraa" },
    { "zipcode": 9440, "city": "Aabybro" },
    { "zipcode": 8230, "city": "Åbyhøj" },
    { "zipcode": 3720, "city": "Aakirkeby" },
    { "zipcode": 9000, "city": "Aalborg" },
    { "zipcode": 9200, "city": "Aalborg SV" },
    { "zipcode": 9210, "city": "Aalborg SØ" },
    { "zipcode": 9220, "city": "Aalborg Øst" },
    { "zipcode": 9982, "city": "Ålbæk" },
    { "zipcode": 9620, "city": "Aalestrup" },
    { "zipcode": 3140, "city": "Ålsgårde" },
    { "zipcode": 8000, "city": "Aarhus C" },
    { "zipcode": 8200, "city": "Aarhus N" },
    { "zipcode": 8210, "city": "Aarhus V" },
    { "zipcode": 6818, "city": "Årre" },
    { "zipcode": 9600, "city": "Aars" },
    { "zipcode": 5792, "city": "Årslev" },
    { "zipcode": 5560, "city": "Aarup" }
  ]
}
